STARLINK-4703           
1 53855U 22114AP  23156.17417935  .00000112  00000+0  25138-4 0  9996
2 53855  53.2157 141.2639 0001156  90.5620 269.5505 15.08837878 40182
STARLINK-4795           
1 53856U 22114AQ  23156.20362386 -.00000137  00000+0  94923-5 0  9997
2 53856  53.2152 131.4652 0001185  86.4097 273.7031 15.08840145 40326
STARLINK-4809           
1 53857U 22114AR  23156.22471862  .00001084  00000+0  86184-4 0  9990
2 53857  53.2162 140.8730 0000981  75.0893 285.0208 15.08843895 40192
STARLINK-4798           
1 53858U 22114AS  23155.75099759  .00000064  00000+0  22117-4 0  9992
2 53858  53.2155 133.6155 0001179  91.9505 268.1623 15.08836508 40795
STARLINK-4790           
1 53859U 22114AT  23156.23071451  .00000327  00000+0  38649-4 0  9995
2 53859  53.2151 135.9250 0000951  83.5095 276.6006 15.08836514 40269
STARLINK-4799           
1 53860U 22114AU  23156.20730286  .00000611  00000+0  56459-4 0  9997
2 53860  53.2158 131.4868 0001204  91.5434 268.5696 15.08843631 40322
STARLINK-4781           
1 53861U 22114AV  23155.21739247  .00000044  00000+0  20871-4 0  9993
2 53861  53.2152 135.9709 0001134  90.0822 270.0300 15.08839002 40717
STARLINK-4792           
1 53862U 22114AW  23156.19993397  .00001499  00000+0  11220-3 0  9992
2 53862  53.2156 131.4427 0000978  74.7814 285.3286 15.08844972 40326
STARLINK-4788           
1 53863U 22114AX  23155.74458321  .00000771  00000+0  66514-4 0  9995
2 53863  53.2154 133.5754 0001094  87.5256 272.5861 15.08841212 40795
STARLINK-4779           
1 53864U 22114AY  23155.22835912  .00000883  00000+0  73581-4 0  9990
2 53864  53.2158 135.3339 0000880  68.1231 291.9854 15.08835516 40729
STARLINK-4785           
1 53865U 22114AZ  23155.91287093  .00000774  00000+0  66746-4 0  9992
2 53865  53.2156 132.4951 0001213  91.7926 268.3205 15.08837178 40825
STARLINK-4762           
1 53866U 22114BA  23155.88164115  .00000628  00000+0  57556-4 0  9995
2 53866  53.2171 113.0440 0001245  97.4317 262.6816 15.08836157 41094
STARLINK-4793           
1 53867U 22114BB  23155.93590065 -.00000295  00000+0 -46065-6 0  9996
2 53867  53.2152 122.6534 0000872  71.8466 288.2620 15.08836771 40964
STARLINK-4789           
1 53868U 22114BC  23155.58720283 -.00000736  00000+0 -28153-4 0  9991
2 53868  53.2174 114.0682 0001089  91.6363 268.4754 15.08838113 41056
STARLINK-4810           
1 53869U 22114BD  23156.16401398  .00000516  00000+0  50504-4 0  9999
2 53869  53.2159 121.2365 0001074  84.9193 275.1922 15.08839785 40460
STARLINK-4732           
1 53870U 22114BE  23156.18704810  .00000622  00000+0  57165-4 0  9996
2 53870  53.2182 111.4030 0001226  97.1052 263.0080 15.08837130 40606
STARLINK-4740           
1 53871U 22114BF  23156.16957969  .00000530  00000+0  51406-4 0  9990
2 53871  53.2166 111.2903 0001140  96.1576 263.9546 15.08835747 40609
