[{"OBJECT_NAME":"STARLINK-4703","OBJECT_ID":"2022-114AP","EPOCH":"2023-06-05T04:10:49.095840","MEAN_MOTION":15.08837878,"ECCENTRICITY":0.0001156,"INCLINATION":53.2157,"RA_OF_ASC_NODE":141.2639,"ARG_OF_PERICENTER":90.562,"MEAN_ANOMALY":269.5505,"EPHEMERIS_TYPE":0,"CLASSIFICATION_TYPE":"U","NORAD_CAT_ID":53855,"ELEMENT_SET_NO":999,"REV_AT_EPOCH":4018,"BSTAR":2.5138e-5,"MEAN_MOTION_DOT":1.12e-6,"MEAN_MOTION_DDOT":0},{"OBJECT_NAME":"STARLINK-4795","OBJECT_ID":"2022-114AQ","EPOCH":"2023-06-05T04:53:13.101504","MEAN_MOTION":15.08840145,"ECCENTRICITY":0.0001185,"INCLINATION":53.2152,"RA_OF_ASC_NODE":131.4652,"ARG_OF_PERICENTER":86.4097,"MEAN_ANOMALY":273.7031,"EPHEMERIS_TYPE":0,"CLASSIFICATION_TYPE":"U","NORAD_CAT_ID":53856,"ELEMENT_SET_NO":999,"REV_AT_EPOCH":4032,"BSTAR":9.4923e-6,"MEAN_MOTION_DOT":-1.37e-6,"MEAN_MOTION_DDOT":0},{"OBJECT_NAME":"STARLINK-4809","OBJECT_ID":"2022-114AR","EPOCH":"2023-06-05T05:23:35.688768","MEAN_MOTION":15.08843895,"ECCENTRICITY":9.81e-5,"INCLINATION":53.2162,"RA_OF_ASC_NODE":140.873,"ARG_OF_PERICENTER":75.0893,"MEAN_ANOMALY":285.0208,"EPHEMERIS_TYPE":0,"CLASSIFICATION_TYPE":"U","NORAD_CAT_ID":53857,"ELEMENT_SET_NO":999,"REV_AT_EPOCH":4019,"BSTAR":8.6184e-5,"MEAN_MOTION_DOT":1.084e-5,"MEAN_MOTION_DDOT":0},{"OBJECT_NAME":"STARLINK-4798","OBJECT_ID":"2022-114AS","EPOCH":"2023-06-04T18:01:26.191776","MEAN_MOTION":15.08836508,"ECCENTRICITY":0.0001179,"INCLINATION":53.2155,"RA_OF_ASC_NODE":133.6155,"ARG_OF_PERICENTER":91.9505,"MEAN_ANOMALY":268.1623,"EPHEMERIS_TYPE":0,"CLASSIFICATION_TYPE":"U","NORAD_CAT_ID":53858,"ELEMENT_SET_NO":999,"REV_AT_EPOCH":4079,"BSTAR":2.2117e-5,"MEAN_MOTION_DOT":6.4e-7,"MEAN_MOTION_DDOT":0},{"OBJECT_NAME":"STARLINK-4790","OBJECT_ID":"2022-114AT","EPOCH":"2023-06-05T05:32:13.733664","MEAN_MOTION":15.08836514,"ECCENTRICITY":9.51e-5,"INCLINATION":53.2151,"RA_OF_ASC_NODE":135.925,"ARG_OF_PERICENTER":83.5095,"MEAN_ANOMALY":276.6006,"EPHEMERIS_TYPE":0,"CLASSIFICATION_TYPE":"U","NORAD_CAT_ID":53859,"ELEMENT_SET_NO":999,"REV_AT_EPOCH":4026,"BSTAR":3.8649e-5,"MEAN_MOTION_DOT":3.27e-6,"MEAN_MOTION_DDOT":0},{"OBJECT_NAME":"STARLINK-4799","OBJECT_ID":"2022-114AU","EPOCH":"2023-06-05T04:58:30.967104","MEAN_MOTION":15.08843631,"ECCENTRICITY":0.0001204,"INCLINATION":53.2158,"RA_OF_ASC_NODE":131.4868,"ARG_OF_PERICENTER":91.5434,"MEAN_ANOMALY":268.5696,"EPHEMERIS_TYPE":0,"CLASSIFICATION_TYPE":"U","NORAD_CAT_ID":53860,"ELEMENT_SET_NO":999,"REV_AT_EPOCH":4032,"BSTAR":5.6459e-5,"MEAN_MOTION_DOT":6.11e-6,"MEAN_MOTION_DDOT":0},{"OBJECT_NAME":"STARLINK-4781","OBJECT_ID":"2022-114AV","EPOCH":"2023-06-04T05:13:02.709408","MEAN_MOTION":15.08839002,"ECCENTRICITY":0.0001134,"INCLINATION":53.2152,"RA_OF_ASC_NODE":135.9709,"ARG_OF_PERICENTER":90.0822,"MEAN_ANOMALY":270.03,"EPHEMERIS_TYPE":0,"CLASSIFICATION_TYPE":"U","NORAD_CAT_ID":53861,"ELEMENT_SET_NO":999,"REV_AT_EPOCH":4071,"BSTAR":2.0871e-5,"MEAN_MOTION_DOT":4.4e-7,"MEAN_MOTION_DDOT":0},{"OBJECT_NAME":"STARLINK-4792","OBJECT_ID":"2022-114AW","EPOCH":"2023-06-05T04:47:54.295008","MEAN_MOTION":15.08844972,"ECCENTRICITY":9.78e-5,"INCLINATION":53.2156,"RA_OF_ASC_NODE":131.4427,"ARG_OF_PERICENTER":74.7814,"MEAN_ANOMALY":285.3286,"EPHEMERIS_TYPE":0,"CLASSIFICATION_TYPE":"U","NORAD_CAT_ID":53862,"ELEMENT_SET_NO":999,"REV_AT_EPOCH":4032,"BSTAR":0.0001122,"MEAN_MOTION_DOT":1.499e-5,"MEAN_MOTION_DDOT":0},{"OBJECT_NAME":"STARLINK-4788","OBJECT_ID":"2022-114AX","EPOCH":"2023-06-04T17:52:11.989344","MEAN_MOTION":15.08841212,"ECCENTRICITY":0.0001094,"INCLINATION":53.2154,"RA_OF_ASC_NODE":133.5754,"ARG_OF_PERICENTER":87.5256,"MEAN_ANOMALY":272.5861,"EPHEMERIS_TYPE":0,"CLASSIFICATION_TYPE":"U","NORAD_CAT_ID":53863,"ELEMENT_SET_NO":999,"REV_AT_EPOCH":4079,"BSTAR":6.6514e-5,"MEAN_MOTION_DOT":7.71e-6,"MEAN_MOTION_DDOT":0},{"OBJECT_NAME":"STARLINK-4779","OBJECT_ID":"2022-114AY","EPOCH":"2023-06-04T05:28:50.227968","MEAN_MOTION":15.08835516,"ECCENTRICITY":8.8e-5,"INCLINATION":53.2158,"RA_OF_ASC_NODE":135.3339,"ARG_OF_PERICENTER":68.1231,"MEAN_ANOMALY":291.9854,"EPHEMERIS_TYPE":0,"CLASSIFICATION_TYPE":"U","NORAD_CAT_ID":53864,"ELEMENT_SET_NO":999,"REV_AT_EPOCH":4072,"BSTAR":7.3581e-5,"MEAN_MOTION_DOT":8.83e-6,"MEAN_MOTION_DDOT":0},{"OBJECT_NAME":"STARLINK-4785","OBJECT_ID":"2022-114AZ","EPOCH":"2023-06-04T21:54:32.048352","MEAN_MOTION":15.08837178,"ECCENTRICITY":0.0001213,"INCLINATION":53.2156,"RA_OF_ASC_NODE":132.4951,"ARG_OF_PERICENTER":91.7926,"MEAN_ANOMALY":268.3205,"EPHEMERIS_TYPE":0,"CLASSIFICATION_TYPE":"U","NORAD_CAT_ID":53865,"ELEMENT_SET_NO":999,"REV_AT_EPOCH":4082,"BSTAR":6.6746e-5,"MEAN_MOTION_DOT":7.74e-6,"MEAN_MOTION_DDOT":0},{"OBJECT_NAME":"STARLINK-4762","OBJECT_ID":"2022-114BA","EPOCH":"2023-06-04T21:09:33.795360","MEAN_MOTION":15.08836157,"ECCENTRICITY":0.0001245,"INCLINATION":53.2171,"RA_OF_ASC_NODE":113.044,"ARG_OF_PERICENTER":97.4317,"MEAN_ANOMALY":262.6816,"EPHEMERIS_TYPE":0,"CLASSIFICATION_TYPE":"U","NORAD_CAT_ID":53866,"ELEMENT_SET_NO":999,"REV_AT_EPOCH":4109,"BSTAR":5.7556e-5,"MEAN_MOTION_DOT":6.28e-6,"MEAN_MOTION_DDOT":0},{"OBJECT_NAME":"STARLINK-4793","OBJECT_ID":"2022-114BB","EPOCH":"2023-06-04T22:27:41.816160","MEAN_MOTION":15.08836771,"ECCENTRICITY":8.72e-5,"INCLINATION":53.2152,"RA_OF_ASC_NODE":122.6534,"ARG_OF_PERICENTER":71.8466,"MEAN_ANOMALY":288.262,"EPHEMERIS_TYPE":0,"CLASSIFICATION_TYPE":"U","NORAD_CAT_ID":53867,"ELEMENT_SET_NO":999,"REV_AT_EPOCH":4096,"BSTAR":-4.6065e-7,"MEAN_MOTION_DOT":-2.95e-6,"MEAN_MOTION_DDOT":0},{"OBJECT_NAME":"STARLINK-4789","OBJECT_ID":"2022-114BC","EPOCH":"2023-06-04T14:05:34.324512","MEAN_MOTION":15.08838113,"ECCENTRICITY":0.0001089,"INCLINATION":53.2174,"RA_OF_ASC_NODE":114.0682,"ARG_OF_PERICENTER":91.6363,"MEAN_ANOMALY":268.4754,"EPHEMERIS_TYPE":0,"CLASSIFICATION_TYPE":"U","NORAD_CAT_ID":53868,"ELEMENT_SET_NO":999,"REV_AT_EPOCH":4105,"BSTAR":-2.8153e-5,"MEAN_MOTION_DOT":-7.36e-6,"MEAN_MOTION_DDOT":0},{"OBJECT_NAME":"STARLINK-4810","OBJECT_ID":"2022-114BD","EPOCH":"2023-06-05T03:56:10.807872","MEAN_MOTION":15.08839785,"ECCENTRICITY":0.0001074,"INCLINATION":53.2159,"RA_OF_ASC_NODE":121.2365,"ARG_OF_PERICENTER":84.9193,"MEAN_ANOMALY":275.1922,"EPHEMERIS_TYPE":0,"CLASSIFICATION_TYPE":"U","NORAD_CAT_ID":53869,"ELEMENT_SET_NO":999,"REV_AT_EPOCH":4046,"BSTAR":5.0504e-5,"MEAN_MOTION_DOT":5.16e-6,"MEAN_MOTION_DDOT":0},{"OBJECT_NAME":"STARLINK-4732","OBJECT_ID":"2022-114BE","EPOCH":"2023-06-05T04:29:20.955840","MEAN_MOTION":15.0883713,"ECCENTRICITY":0.0001226,"INCLINATION":53.2182,"RA_OF_ASC_NODE":111.403,"ARG_OF_PERICENTER":97.1052,"MEAN_ANOMALY":263.008,"EPHEMERIS_TYPE":0,"CLASSIFICATION_TYPE":"U","NORAD_CAT_ID":53870,"ELEMENT_SET_NO":999,"REV_AT_EPOCH":4060,"BSTAR":5.7165e-5,"MEAN_MOTION_DOT":6.22e-6,"MEAN_MOTION_DDOT":0},{"OBJECT_NAME":"STARLINK-4740","OBJECT_ID":"2022-114BF","EPOCH":"2023-06-05T04:04:11.685216","MEAN_MOTION":15.08835747,"ECCENTRICITY":0.000114,"INCLINATION":53.2166,"RA_OF_ASC_NODE":111.2903,"ARG_OF_PERICENTER":96.1576,"MEAN_ANOMALY":263.9546,"EPHEMERIS_TYPE":0,"CLASSIFICATION_TYPE":"U","NORAD_CAT_ID":53871,"ELEMENT_SET_NO":999,"REV_AT_EPOCH":4060,"BSTAR":5.1406e-5,"MEAN_MOTION_DOT":5.3e-6,"MEAN_MOTION_DDOT":0}]
